NORAD_CAT_ID,OBJECT_NAME,OBJECT_TYPE,EPOCH,MEAN_MOTION,ECCENTRICITY,INCLINATION,RA_OF_ASC_NODE,ARG_OF_PERICENTER,MEAN_ANOMALY,BSTAR,MEAN_MOTION_DOT,MEAN_MOTION_DDOT,TLE_LINE0,TLE_LINE1,TLE_LINE2,SEMIMAJOR_AXIS,PERIOD,APOGEE,PERIGEE,DECAYED
55919.0,STARLINK-5871,PAYLOAD,2023-03-22 18:00:00,15.94863268,0.0039613,69.9998,167.7498,162.5176,297.0044,-0.0023384,-0.00976359,0.00029773,0 STARLINK-5871,1 55919U 23037F   23081.75001157 -.00976359  29773-3 -23384-2 0  9998,2 55919  69.9998 167.7498 0039613 162.5176 297.0044 15.94863268  1305,6666.832,90.29,315.107,262.288,0.0
55919.0,STARLINK-5871,PAYLOAD,2023-03-22 22:00:00,15.94569512,0.003692,69.9997,167.2639,162.5446,173.4932,-0.0025661,-0.01042724,0.00033516,0 STARLINK-5871,1 55919U 23037F   23081.91667824 -.01042724  33516-3 -25661-2 0  9996,2 55919  69.9997 167.2639 0036920 162.5446 173.4932 15.94569512  1302,6667.651,90.307,314.133,264.899,0.0
55919.0,STARLINK-5871,PAYLOAD,2023-03-23 06:00:00,15.93886719,0.0034354,70.0003,166.2921,163.6095,284.9067,-0.0025266,-0.00980631,0.00029712,0 STARLINK-5871,1 55919U 23037F   23082.25001157 -.00980631  29712-3 -25266-2 0  9996,2 55919  70.0003 166.2921 0034354 163.6095 284.9067 15.93886719  1371,6669.555,90.345,314.333,268.508,0.0
55919.0,STARLINK-5871,PAYLOAD,2023-03-23 14:00:01,15.93232784,0.0030367,70.0002,165.322,164.4365,35.8324,-0.0026466,-0.00979199,0.00029434,0 STARLINK-5871,1 55919U 23037F   23082.58335648 -.00979199  29434-3 -26466-2 0  9998,2 55919  70.0002 165.3220 0030367 164.4365  35.8324 15.93232784  1300,6671.38,90.382,313.504,272.986,0.0
55919.0,STARLINK-5871,PAYLOAD,2023-03-24 17:00:11,15.91027027,0.0018569,69.9999,162.0531,173.6348,353.3943,-0.0030262,-0.00970542,0.00028318,0 STARLINK-5871,1 55919U 23037F   23083.70846065 -.00970542  28318-3 -30262-2 0  9995,2 55919  69.9999 162.0531 0018569 173.6348 353.3943 15.91027027  1602,6677.545,90.508,311.809,287.01,0.0
55919.0,STARLINK-5871,PAYLOAD,2023-03-24 22:00:01,15.90660705,0.0015917,69.9998,161.449,177.5112,101.662,-0.0033559,-0.010512,0.00032705,0 STARLINK-5871,1 55919U 23037F   23083.91668981 -.01051200  32705-3 -33559-2 0  9996,2 55919  69.9998 161.4490 0015917 177.5112 101.6620 15.90660705  1302,6678.57,90.528,311.065,289.805,0.0
55919.0,STARLINK-5871,PAYLOAD,2023-03-25 06:00:00,15.89994589,0.0013111,70.0,160.4837,185.5946,201.2918,-0.0033992,-0.01025706,0.0003105,0 STARLINK-5871,1 55919U 23037F   23084.25001157 -.01025706  31050-3 -33992-2 0  9995,2 55919  70.0000 160.4837 0013111 185.5946 201.2918 15.89994589  1698,6680.435,90.566,311.059,293.541,0.0
55919.0,STARLINK-5871,PAYLOAD,2023-03-25 14:00:01,15.89319324,0.0010799,70.0001,159.5189,195.4936,298.3924,-0.0033652,-0.00979391,0.00028318,0 STARLINK-5871,1 55919U 23037F   23084.58334491 -.00979391  28318-3 -33652-2 0  9994,2 55919  70.0001 159.5189 0010799 195.4936 298.3924 15.89319324  1744,6682.327,90.605,311.408,296.976,0.0
55919.0,STARLINK-5871,PAYLOAD,2023-03-25 22:00:00,15.88691035,0.0008814,69.9999,158.5543,213.2115,26.8752,-0.0036474,-0.01026595,0.00030709,0 STARLINK-5871,1 55919U 23037F   23084.91667824 -.01026595  30709-3 -36474-2 0  9992,2 55919  69.9999 158.5543 0008814 213.2115  26.8752 15.88691035  1792,6684.089,90.641,311.845,300.062,0.0
55919.0,STARLINK-5871,PAYLOAD,2023-03-26 06:00:00,15.88045669,0.0008439,69.9998,157.5912,235.5893,109.922,-0.0038215,-0.01041312,0.00031334,0 STARLINK-5871,1 55919U 23037F   23085.25001157 -.01041312  31334-3 -38215-2 0  9995,2 55919  69.9998 157.5912 0008439 235.5893 109.9220 15.88045669  1859,6685.9,90.677,313.407,302.122,0.0
55919.0,STARLINK-5871,PAYLOAD,2023-03-26 22:00:01,15.86715678,0.0009166,69.9998,155.6684,265.762,288.3327,-0.0038902,-0.00903468,0.0,0 STARLINK-5871,1 55919U 23037F   23085.91668981 -.00903468  00000-0 -38902-2 0  9996,2 55919  69.9998 155.6684 0009166 265.7620 288.3327 15.86715678  1958,6689.635,90.753,317.632,305.368,0.0
55919.0,STARLINK-5871,PAYLOAD,2023-03-27 14:00:01,15.85423207,0.0007899,69.9999,153.7487,271.5809,127.8206,-0.0042366,-0.00920591,0.0,0 STARLINK-5871,1 55919U 23037F   23086.58334491 -.00920591  00000-0 -42366-2 0  9991,2 55919  69.9999 153.7487 0007899 271.5809 127.8206 15.85423207  1309,6693.27,90.827,320.422,309.848,0.0
55919.0,STARLINK-5871,PAYLOAD,2023-03-27 22:00:00,15.84783175,0.000401,70.0002,152.7901,275.7426,225.1687,-0.0044635,-0.00935592,0.0,0 STARLINK-5871,1 55919U 23037F   23086.91667824 -.00935592  00000-0 -44635-2 0  9995,2 55919  70.0002 152.7901 0004010 275.7426 225.1687 15.84783175  1307,6695.072,90.864,319.622,314.253,0.0
55919.0,STARLINK-5871,PAYLOAD,2023-03-28 14:00:01,15.83459715,0.0003656,70.0001,150.8763,268.2675,73.3366,-0.0046025,-0.00908153,0.0,0 STARLINK-5871,1 55919U 23037F   23087.58334491 -.00908153  00000-0 -46025-2 0  9998,2 55919  70.0001 150.8763 0003656 268.2675  73.3366 15.83459715  1305,6698.802,90.94,323.116,318.218,0.0
55919.0,STARLINK-5871,PAYLOAD,2023-03-28 22:00:00,15.8281928,0.0003738,69.9998,149.92,283.4064,157.3616,-0.0048403,-0.00924787,0.0,0 STARLINK-5871,1 55919U 23037F   23087.91667824 -.00924787  00000-0 -48403-2 0  9997,2 55919  69.9998 149.9200 0003738 283.4064 157.3616 15.82819280  1301,6700.609,90.977,324.979,319.969,0.0
55919.0,STARLINK-5871,PAYLOAD,2023-03-29 02:00:01,15.82480752,0.0003733,70.0,149.4431,280.197,29.8672,-0.0048158,-0.00907369,0.0,0 STARLINK-5871,1 55919U 23037F   23088.08334491 -.00907369  00000-0 -48158-2 0  9991,2 55919  70.0000 149.4431 0003733 280.1970  29.8672 15.82480752  2308,6701.565,90.996,325.931,320.928,0.0
55919.0,STARLINK-5871,PAYLOAD,2023-03-29 14:00:01,15.81499348,0.0003613,70.0003,148.0121,270.0655,6.6988,-0.0050047,-0.00901184,0.0,0 STARLINK-5871,1 55919U 23037F   23088.58334491 -.00901184  00000-0 -50047-2 0  9995,2 55919  70.0003 148.0121 0003613 270.0655   6.6988 15.81499348  1309,6704.337,91.053,328.624,323.78,0.0
55919.0,STARLINK-5871,PAYLOAD,2023-03-29 22:00:00,15.80848175,0.0003654,70.0,147.059,269.4332,104.1537,-0.0051791,-0.00904481,0.0,0 STARLINK-5871,1 55919U 23037F   23088.91667824 -.00904481  00000-0 -51791-2 0  9991,2 55919  70.0000 147.0590 0003654 269.4332 104.1537 15.80848175  1303,6706.178,91.09,330.493,325.592,0.0
55919.0,STARLINK-5871,PAYLOAD,2023-03-30 00:00:00,15.80683903,0.0003522,69.9999,146.8208,269.8803,217.7898,-0.0051979,-0.0090117,0.0,0 STARLINK-5871,1 55919U 23037F   23089.00001157 -.00901170  00000-0 -51979-2 0  9993,2 55919  69.9999 146.8208 0003522 269.8803 217.7898 15.80683903  2444,6706.642,91.1,330.87,326.145,0.0
55919.0,STARLINK-5871,PAYLOAD,2023-03-30 22:00:00,15.78892871,0.0003593,70.0001,144.2057,271.0669,28.2915,-0.0056797,-0.00906596,0.0,0 STARLINK-5871,1 55919U 23037F   23089.91667824 -.00906596  00000-0 -56797-2 0  9992,2 55919  70.0001 144.2057 0003593 271.0669  28.2915 15.78892871  2592,6711.713,91.203,335.99,331.167,0.0
55919.0,STARLINK-5871,PAYLOAD,2023-03-31 22:00:00,15.76929463,0.0003732,70.0002,141.3605,286.4757,291.6166,-0.0061232,-0.00895984,0.0,0 STARLINK-5871,1 55919U 23037F   23090.91667824 -.00895984  00000-0 -61232-2 0  9992,2 55919  70.0002 141.3605 0003732 286.4757 291.6166 15.76929463  2740,6717.283,91.317,341.655,336.641,0.0
55919.0,STARLINK-5871,PAYLOAD,2023-04-01 14:00:01,15.75630288,0.0003699,69.9999,139.4687,278.6639,121.3351,-0.006531,-0.00901614,0.0,0 STARLINK-5871,1 55919U 23037F   23091.58334491 -.00901614  00000-0 -65310-2 0  9996,2 55919  69.9999 139.4687 0003699 278.6639 121.3351 15.75630288  1303,6720.975,91.392,345.326,340.354,0.0
55919.0,STARLINK-5871,PAYLOAD,2023-04-01 16:00:00,15.75469808,0.0003503,69.9997,139.2324,278.7867,233.7306,-0.00662,-0.00906809,0.0,0 STARLINK-5871,1 55919U 23037F   23091.66667824 -.00906809  00000-0 -66200-2 0  9994,2 55919  69.9997 139.2324 0003503 278.7867 233.7306 15.75469808  2863,6721.432,91.401,345.651,340.942,0.0
55919.0,STARLINK-5871,PAYLOAD,2023-04-01 22:00:00,15.74977428,0.0003704,70.0003,138.5238,287.1446,202.6362,-0.0067152,-0.00900944,0.0,0 STARLINK-5871,1 55919U 23037F   23091.91667824 -.00900944  00000-0 -67152-2 0  9993,2 55919  70.0003 138.5238 0003704 287.1446 202.6362 15.74977428  1306,6722.832,91.43,347.188,342.207,0.0
55919.0,STARLINK-5871,PAYLOAD,2023-04-02 14:00:01,15.73673532,0.0003664,70.0001,136.6376,278.5088,28.4873,-0.007109,-0.00901177,0.0,0 STARLINK-5871,1 55919U 23037F   23092.58334491 -.00901177  00000-0 -71090-2 0  9993,2 55919  70.0001 136.6376 0003664 278.5088  28.4873 15.73673532  1306,6726.545,91.506,350.875,345.946,0.0
55919.0,STARLINK-5871,PAYLOAD,2023-04-02 16:00:00,15.73510138,0.0003666,69.9998,136.4019,280.8792,138.0497,-0.0071646,-0.00901777,0.0,0 STARLINK-5871,1 55919U 23037F   23092.66667824 -.00901777  00000-0 -71646-2 0  9994,2 55919  69.9998 136.4019 0003666 280.8792 138.0497 15.73510138  3023,6727.011,91.515,351.342,346.41,0.0
55919.0,STARLINK-5871,PAYLOAD,2023-04-02 22:00:00,15.7301616,0.0003903,70.0003,135.6955,288.4258,106.0073,-0.0072512,-0.00894393,0.0,0 STARLINK-5871,1 55919U 23037F   23092.91667824 -.00894393  00000-0 -72512-2 0  9990,2 55919  70.0003 135.6955 0003903 288.4258 106.0073 15.73016160  1308,6728.419,91.544,352.91,347.658,0.0
55919.0,STARLINK-5871,PAYLOAD,2023-04-03 06:00:00,15.7237459,0.0008621,70.0001,134.7542,271.1291,209.9533,-0.0076159,-0.00914735,0.0,0 STARLINK-5871,1 55919U 23037F   23093.25001157 -.00914735  00000-0 -76159-2 0  9993,2 55919  70.0001 134.7542 0008621 271.1291 209.9533 15.72374590  3114,6730.249,91.581,357.917,346.312,0.0
55919.0,STARLINK-5871,PAYLOAD,2023-04-03 14:00:01,15.71722839,0.0003467,69.9999,133.8148,271.7309,295.2196,-0.0078132,-0.00909996,0.0,0 STARLINK-5871,1 55919U 23037F   23093.58334491 -.00909996  00000-0 -78132-2 0  9995,2 55919  69.9999 133.8148 0003467 271.7309 295.2196 15.71722839  3168,6732.11,91.619,356.309,351.641,0.0
